{
    "links": {
        "self": "http://www.neowsapp.com/rest/v1/neo/3799277?api_key=iIulBulltgU6a56xZRHN4H3l9WmuAYTsLGpBGhQ2"
    },
    "id": "3799277",
    "neo_reference_id": "3799277",
    "name": "(2018 CC2)",
    "designation": "2018 CC2",
    "nasa_jpl_url": "http://ssd.jpl.nasa.gov/sbdb.cgi?sstr=3799277",
    "absolute_magnitude_h": 24.5,
    "estimated_diameter": {
        "kilometers": {
            "estimated_diameter_min": 0.0334622374,
            "estimated_diameter_max": 0.0748238376
        },
        "meters": {
            "estimated_diameter_min": 33.4622374455,
            "estimated_diameter_max": 74.8238376074
        },
        "miles": {
            "estimated_diameter_min": 0.0207924639,
            "estimated_diameter_max": 0.0464933628
        },
        "feet": {
            "estimated_diameter_min": 109.7842471007,
            "estimated_diameter_max": 245.4850393757
        }
    },
    "is_potentially_hazardous_asteroid": false,
    "close_approach_data": [
        {
            "close_approach_date": "2018-02-09",
            "close_approach_date_full": "2018-Feb-09 10:35",
            "epoch_date_close_approach": 1518172500000,
            "relative_velocity": {
                "kilometers_per_second": "11.6367500266",
                "kilometers_per_hour": "41892.3000958064",
                "miles_per_hour": "26030.2461345304"
            },
            "miss_distance": {
                "astronomical": "0.0742788678",
                "lunar": "28.8944795742",
                "kilometers": "11111960.408891586",
                "miles": "6904652.0251164468"
            },
            "orbiting_body": "Earth"
        }
    ],
    "orbital_data": {
        "orbit_id": "1",
        "orbit_determination_date": "2018-02-10 13:12:03",
        "first_observation_date": "2018-02-07",
        "last_observation_date": "2018-02-10",
        "data_arc_in_days": 3,
        "observations_used": 47,
        "orbit_uncertainty": "8",
        "minimum_orbit_intersection": ".0732226",
        "jupiter_tisserand_invariant": "3.709",
        "epoch_osculation": "2458158.5",
        "eccentricity": ".4940491989799112",
        "semi_major_axis": "1.938983392928595",
        "inclination": "15.07375068792265",
        "ascending_node_longitude": "129.3540188144733",
        "orbital_period": "986.187653292138",
        "perihelion_distance": ".9810302008168722",
        "perihelion_argument": "45.03593575003561",
        "aphelion_distance": "2.896936585040318",
        "perihelion_time": "2458187.817667495722",
        "mean_anomaly": "349.2978174455674",
        "mean_motion": ".365042087880771",
        "equinox": "J2000",
        "orbit_class": {
            "orbit_class_type": "APO",
            "orbit_class_description": "Near-Earth asteroid orbits which cross the Earth’s orbit similar to that of 1862 Apollo",
            "orbit_class_range": "a (semi-major axis) > 1.0 AU; q (perihelion) < 1.017 AU"
        }
    },
    "is_sentry_object": false
}